{
  "norad_id": 63907,
  "name": "STARLINK-34106",
  "history": [
    {
      "epoch": "2026-03-28T15:59:30.056640",
      "apogee_km": 483.87625270832905,
      "perigee_km": 482.2598900176181,
      "latitude_deg": -9.336198147054443,
      "longitude_deg": -85.33327040006407,
      "semi_major_axis_km": 6861.205071362973,
      "eccentricity": 0.00011779,
      "inclination_deg": 43.0024,
      "raan_deg": 68.7315,
      "arg_perigee_deg": 269.8454,
      "mean_anomaly_deg": 90.2263,
      "mean_motion_rev_day": 15.27573663
    },
    {
      "epoch": "2026-03-28T22:16:07.509216",
      "apogee_km": 483.72065426743575,
      "perigee_km": 482.2784433648749,
      "latitude_deg": 40.96774296519599,
      "longitude_deg": -60.224989759968594,
      "semi_major_axis_km": 6861.136548816155,
      "eccentricity": 0.0001051,
      "inclination_deg": 43.0021,
      "raan_deg": 67.2556,
      "arg_perigee_deg": 268.5577,
      "mean_anomaly_deg": 91.5154,
      "mean_motion_rev_day": 15.27596547
    }
  ]
}